OBJECT_NAME,OBJECT_ID,EPOCH,MEAN_MOTION,ECCENTRICITY,INCLINATION,RA_OF_ASC_NODE,ARG_OF_PERICENTER,MEAN_ANOMALY,EPHEMERIS_TYPE,CLASSIFICATION_TYPE,NORAD_CAT_ID,ELEMENT_SET_NO,REV_AT_EPOCH,BSTAR,MEAN_MOTION_DOT,MEAN_MOTION_DDOT
OSCAR 7 (AO-7),1974-089B,2026-07-21T01:08:32.543232,12.53698642,.00126251,101.9907,215.6472,67.5516,311.3823,0,U,7530,999,36476,-.11256523E-4,-.48E-6,0
PHASE 3B (AO-10),1983-058B,2026-07-21T08:35:33.935424,2.05869545,.59994286,25.9422,213.9384,125.0554,306.6315,0,U,14129,999,29619,0,.44E-6,0
UOSAT 2 (UO-11),1984-021B,2026-07-21T04:23:55.826592,14.90858546,.00091623,97.8081,167.3844,74.7990,285.4241,0,U,14781,999,26219,.10789439E-3,.1007E-4,0
LUSAT (LO-19),1990-005G,2026-07-21T07:10:12.295488,14.34131879,.00126633,98.8846,225.0431,105.0161,255.2425,0,U,20442,999,90728,.36167295E-4,.55E-6,0
EYESAT A (AO-27),1993-061C,2026-07-21T11:19:59.258496,14.30950199,.00083991,98.6862,269.8702,8.0280,352.1035,0,U,22825,999,71190,.33860332E-4,.44E-6,0
ITAMSAT (IO-26),1993-061D,2026-07-21T03:52:57.884448,14.31377843,.00085964,98.6811,269.4809,351.6413,8.4625,0,U,22826,999,71217,.31083764E-4,.38E-6,0
RADIO ROSTO (RS15),1994-085A,2026-07-21T12:39:22.666752,11.27583622,.01571606,64.8142,247.6797,357.5420,2.4717,0,U,23439,999,29977,-.81948885E-4,-.45E-6,0
JAS-2 (FO-29),1996-046B,2026-07-21T09:27:27.057024,13.53275806,.03500595,98.5217,46.5770,7.8713,352.7727,0,U,24278,999,47779,-.13674993E-4,-.49E-6,0
TECHSAT 1B (GO-32),1998-043D,2026-07-21T09:54:55.389312,14.24434140,.00023162,99.0091,196.0385,105.0328,255.1107,0,U,25397,999,45620,.34134747E-4,.32E-6,0
ISS (ZARYA),1998-067A,2026-07-21T04:27:10.178208,15.49071756,.00068493,51.6316,131.8443,320.6461,39.4029,0,U,25544,999,57702,.11479289E-3,.5896E-4,0
PCSAT (NO-44),2001-043C,2026-07-21T07:31:33.031200,14.31966652,.00058673,67.0502,156.0046,267.0955,92.9475,0,U,26931,999,29533,.63673735E-4,.88E-6,0
SAUDISAT 1C (SO-50),2002-058C,2026-07-20T22:30:56.600640,14.83105633,.00743462,64.5521,24.5545,256.2283,103.0541,0,U,27607,999,26946,.84993258E-4,.57E-5,0
CUTE-1 (CO-55),2003-031E,2026-07-20T23:12:05.361408,14.24353883,.00108674,98.6745,210.1018,87.8923,272.3500,0,U,27844,999,19648,.94328469E-4,.174E-5,0
CUBESAT XI-IV (CO-57),2003-031J,2026-07-21T11:08:22.386336,14.23636890,.00107004,98.6777,210.2780,103.0346,257.2027,0,U,27848,999,19625,.94003799E-4,.171E-5,0
MOZHAETS 4 (RS22),2003-042A,2026-07-21T15:30:01.261152,14.73521448,.00117521,98.3485,27.9806,153.2912,295.4138,0,U,27939,999,22062,.11689716E-3,.706E-5,0
CUBESAT XI-V,2005-043F,2026-07-21T08:59:40.719840,14.72712744,.0015344,98.3024,358.7230,97.2573,263.0378,0,U,28895,999,10678,.15413557E-3,.932E-5,0
CUTE-1.7+APD II (CO-65),2008-021C,2026-07-21T14:00:39.668544,15.09735529,.00068929,97.8297,184.7297,272.1964,87.8475,0,U,32785,999,99038,.25384226E-3,.4029E-4,0
SEEDS II (CO-66),2008-021J,2026-07-21T11:05:37.720896,15.33809298,.00037431,97.7536,202.0274,143.8472,216.3023,0,U,32791,999,99254,.53390583E-3,.17397E-3,0
YUBILEINY (RS30),2008-025A,2026-07-21T14:57:55.718784,12.43180711,.00187928,82.5070,334.0188,234.1965,125.7369,0,U,32953,999,82397,-.20644528E-3,-.19E-6,0
KKS-1 (KISEKI),2009-002H,2026-07-21T14:18:10.950048,14.83199535,.00079428,98.1169,125.5831,168.0639,192.0763,0,U,33499,999,94129,.11304525E-3,.868E-5,0
SWISSCUBE,2009-051B,2026-07-21T05:45:20.945664,14.62538248,.00080636,98.4000,110.7173,103.0186,257.1915,0,U,35932,999,89413,.13969E-3,.659E-5,0
BEESAT-1,2009-051C,2026-07-21T14:37:27.258528,14.61768730,.00064293,98.3928,110.6562,113.2480,246.9398,0,U,35933,999,89421,.12384909E-3,.569E-5,0
ITUPSAT1,2009-051E,2026-07-21T11:50:30.081408,14.60484966,.0008429,98.4012,109.6936,125.7082,234.4903,0,U,35935,999,89374,.11752246E-3,.521E-5,0
XIWANG-1 (HOPE-1),2009-072B,2026-07-21T14:17:29.415840,13.16441165,.00077347,100.4044,155.8809,150.4362,209.7189,0,U,36122,999,79753,.47881975E-3,.138E-5,0
O/OREOS (USA 219),2010-062C,2026-07-21T09:59:09.003552,14.93867011,.00144178,71.9703,2.7940,353.1172,6.9798,0,U,37224,999,12175,.13660928E-3,.1391E-4,0
JUGNU,2011-058B,2026-07-21T09:43:02.883072,14.13784732,.0018638,19.9605,100.5352,94.5961,62.3564,0,U,37839,999,76387,.5867698E-4,.379E-5,0
SRMSAT,2011-058D,2026-07-21T09:01:49.690848,14.11581900,.00115886,19.9702,212.5309,219.4908,265.6668,0,U,37841,999,76265,.41912991E-4,.342E-5,0
STRAND-1,2013-009E,2026-07-21T10:46:29.071776,14.37181358,.00096811,98.3940,21.8430,124.3743,235.8361,0,U,39090,999,70198,.78007345E-4,.189E-5,0
ZACUBE-1 (TSHEPISOSAT),2013-066B,2026-07-20T20:47:42.553536,15.01347026,.00440791,97.7999,164.3670,137.0238,223.4444,0,U,39417,999,68578,.14536999E-3,.1847E-4,0
GOMX-1,2013-066Q,2026-07-21T12:04:59.002752,14.69549979,.0127696,97.6468,40.8007,327.8862,31.4611,0,U,39430,999,67495,.79448601E-4,.481E-5,0
