{"epoch":1784710044,"count":18256,"objects":[{"id":"7530","name":"OSCAR 7","type":"PAYLOAD","l1":"1 07530U 74089B   26202.04759888 -.00000048  00000-0 -11257-4 0  9998","l2":"2 07530 101.9907 215.6472 0012625  67.5516 311.3823 12.53698642364760"},{"id":"14129","name":"OSCAR 10","type":"PAYLOAD","l1":"1 14129U 83058B   26202.35803166  .00000044  00000-0  00000-0 0  9993","l2":"2 14129  25.9422 213.9384 5999429 125.0554 306.6315  2.05869545296197"},{"id":"14781","name":"OSCAR 11 (UOSAT 2)","type":"PAYLOAD","l1":"1 14781U 84021B   26202.18328503  .00001007  00000-0  10789-3 0  9994","l2":"2 14781  97.8081 167.3844 0009162  74.7990 285.4241 14.90858546262199"},{"id":"20442","name":"OSCAR 19 (LUSAT)","type":"PAYLOAD","l1":"1 20442U 90005G   26202.29875342  .00000055  00000-0  36167-4 0  9995","l2":"2 20442  98.8846 225.0431 0012663 105.0161 255.2425 14.34131879907288"},{"id":"22825","name":"EYESAT A","type":"PAYLOAD","l1":"1 22825U 93061C   26202.47221364  .00000044  00000-0  33860-4 0  9991","l2":"2 22825  98.6862 269.8702 0008399   8.0280 352.1035 14.30950199711909"},{"id":"22826","name":"ITAMSAT","type":"PAYLOAD","l1":"1 22826U 93061D   26202.16178107  .00000038  00000-0  31084-4 0  9993","l2":"2 22826  98.6811 269.4809 0008596 351.6413   8.4625 14.31377843712178"},{"id":"23439","name":"RADIO ROSTO","type":"PAYLOAD","l1":"1 23439U 94085A   26202.52734568 -.00000045  00000-0 -81949-4 0  9995","l2":"2 23439  64.8142 247.6797 0157161 357.5420   2.4717 11.27583622299779"},{"id":"24278","name":"JAS 2","type":"PAYLOAD","l1":"1 24278U 96046B   26202.39406316 -.00000049  00000-0 -13675-4 0  9993","l2":"2 24278  98.5217  46.5770 0350059   7.8713 352.7727 13.53275806477791"},{"id":"25397","name":"TECHSAT 1B","type":"PAYLOAD","l1":"1 25397U 98043D   26202.41314108  .00000032  00000-0  34135-4 0  9999","l2":"2 25397  99.0091 196.0385 0002316 105.0328 255.1107 14.24434140456204"},{"id":"25544","name":"ISS (ZARYA)","type":"PAYLOAD","l1":"1 25544U 98067A   26202.18553447  .00005896  00000-0  11479-3 0  9992","l2":"2 25544  51.6316 131.8443 0006849 320.6461  39.4029 15.49071756577020"},{"id":"26931","name":"PCSAT","type":"PAYLOAD","l1":"1 26931U 01043C   26202.31357675  .00000088  00000-0  63674-4 0  9994","l2":"2 26931  67.0502 156.0046 0005867 267.0955  92.9475 14.31966652295336"},{"id":"27607","name":"SAUDISAT 1C","type":"PAYLOAD","l1":"1 27607U 02058C   26201.93815510  .00000570  00000-0  84993-4 0  9999","l2":"2 27607  64.5521  24.5545 0074346 256.2283 103.0541 14.83105633269469"},{"id":"27844","name":"CUTE-1","type":"PAYLOAD","l1":"1 27844U 03031E   26201.96672872  .00000174  00000-0  94328-4 0  9992","l2":"2 27844  98.6745 210.1018 0010867  87.8923 272.3500 14.24353883196486"},{"id":"27848","name":"CUBESAT XI 4","type":"PAYLOAD","l1":"1 27848U 03031J   26202.46414799  .00000171  00000-0  94004-4 0  9992","l2":"2 27848  98.6777 210.2780 0010700 103.0346 257.2027 14.23636890196250"},{"id":"27939","name":"MOZHAYETS 4","type":"PAYLOAD","l1":"1 27939U 03042A   26202.64584793  .00000706  00000-0  11690-3 0  9990","l2":"2 27939  98.3485  27.9806 0011752 153.2912 295.4138 14.73521448220623"},{"id":"28895","name":"CUBESAT XI 5","type":"PAYLOAD","l1":"1 28895U 05043F   26202.37477685  .00000932  00000-0  15414-3 0  9995","l2":"2 28895  98.3024 358.7230 0015344  97.2573 263.0378 14.72712744106788"},{"id":"32785","name":"CUTE-1.7+APD 2","type":"PAYLOAD","l1":"1 32785U 08021C   26202.58379246  .00004029  00000-0  25384-3 0  9992","l2":"2 32785  97.8297 184.7297 0006893 272.1964  87.8475 15.09735529990388"},{"id":"32791","name":"SEEDS","type":"PAYLOAD","l1":"1 32791U 08021J   26202.46224214  .00017397  00000-0  53391-3 0  9991","l2":"2 32791  97.7536 202.0274 0003743 143.8472 216.3023 15.33809298992548"},{"id":"32953","name":"YUBELEINY","type":"PAYLOAD","l1":"1 32953U 08025A   26202.62356156 -.00000019  00000-0 -20645-3 0  9995","l2":"2 32953  82.5070 334.0188 0018793 234.1965 125.7369 12.43180711823971"},{"id":"33499","name":"KKS-1 (KISEKI)","type":"PAYLOAD","l1":"1 33499U 09002H   26202.59596007  .00000868  00000-0  11305-3 0  9997","l2":"2 33499  98.1169 125.5831 0007943 168.0639 192.0763 14.83199535941296"},{"id":"35932","name":"SWISSCUBE","type":"PAYLOAD","l1":"1 35932U 09051B   26202.23982576  .00000659  00000-0  13969-3 0  9992","l2":"2 35932  98.4000 110.7173 0008064 103.0186 257.1915 14.62538248894130"},{"id":"35933","name":"BEESAT","type":"PAYLOAD","l1":"1 35933U 09051C   26202.60934327  .00000569  00000-0  12385-3 0  9996","l2":"2 35933  98.3928 110.6562 0006429 113.2480 246.9398 14.61768730894213"},{"id":"35935","name":"ITUPSAT 1","type":"PAYLOAD","l1":"1 35935U 09051E   26202.49340372  .00000521  00000-0  11752-3 0  9991","l2":"2 35935  98.4012 109.6936 0008429 125.7082 234.4903 14.60484966893747"},{"id":"36122","name":"XIWANG-1 (HOPE-1)","type":"PAYLOAD","l1":"1 36122U 09072B   26202.59547935  .00000138  00000-0  47882-3 0  9995","l2":"2 36122 100.4044 155.8809 0007735 150.4362 209.7189 13.16441165797537"},{"id":"37224","name":"O/OREOS (USA 219)","type":"PAYLOAD","l1":"1 37224U 10062C   26202.41607643  .00001391  00000-0  13661-3 0  9994","l2":"2 37224  71.9703   2.7940 0014418 353.1172   6.9798 14.93867011121754"},{"id":"37839","name":"JUGNU","type":"PAYLOAD","l1":"1 37839U 11058B   26202.40489448  .00000379  00000-0  58677-4 0  9994","l2":"2 37839  19.9605 100.5352 0018638  94.5961  62.3564 14.13784732763875"},{"id":"37841","name":"SRMSAT","type":"PAYLOAD","l1":"1 37841U 11058D   26202.37626957  .00000342  00000-0  41913-4 0  9996","l2":"2 37841  19.9702 212.5309 0011589 219.4908 265.6668 14.11581900762657"},{"id":"39090","name":"STRAND 1","type":"PAYLOAD","l1":"1 39090U 13009E   26202.44894759  .00000189  00000-0  78007-4 0  9990","l2":"2 39090  98.3940  21.8430 0009681 124.3743 235.8361 14.37181358701986"},{"id":"39417","name":"ZACUBE","type":"PAYLOAD","l1":"1 39417U 13066B   26201.86646474  .00001847  00000-0  14537-3 0  9999","l2":"2 39417  97.7999 164.3670 0044079 137.0238 223.4444 15.01347026685787"},{"id":"39430","name":"GOMX 1","type":"PAYLOAD","l1":"1 39430U 13066Q   26202.50346068  .00000481  00000-0  79449-4 0  9999","l2":"2 39430  97.6468  40.8007 0127696 327.8862  31.4611 14.69549979674957"}]}